RS57S MONITOR-4
1 57182U 23091S   26026.31701326  .00017313  00000+0  70147-3 0  9993
2 57182  97.5288  88.8680 0011452 236.4167 123.5977 15.24667920142658
RS-38S
1 57189U 23091Z   26026.30530575  .00022758  00000+0  75901-3 0  9997
2 57189  97.5290  93.3307 0007462 208.8584 151.2245 15.31060487142948
RS49S NANOZOND-1
1 57190U 23091AA  26026.28820808  .00126028  00000+0  14590-2 0  9998
2 57190  97.5191 103.5833 0004041 198.4126 161.6985 15.61412627143637
RS27S UTMN-2
1 57203U 23091AP  26026.28977458  .00018855  00000+0  68892-3 0  9990
2 57203  97.5291  91.8096 0008021 214.6987 145.3730 15.28119144142841
METEOR-M2-4
1 59051U 24039A   26026.30274834  .00000075  00000+0  53495-4 0  9996
2 59051  98.6831 347.5277 0006342 213.7077 146.3698 14.22409844 99096
SONATE-2
1 59112U 24043Q   26025.84728934  .00042166  00000+0  80398-3 0  9990
2 59112  97.5346 168.8449 0008545   8.7650 351.3747 15.48016199105798
MO-122
1 60209U 24125G   26026.13638449  .00054234  00000+0  96913-3 0  9993
2 60209  97.2498 241.6372 0014635  25.8562 334.3418 15.49737275 87472
GRBBeta
1 60237U 24128C   26026.26652119  .00007167  00000+0  49705-3 0  9991
2 60237  61.9921 353.7266 0054569 105.3021 255.4112 15.05267792 84894
Curium One
1 60242U 24128H   26026.18277645  .00014082  00000+0  84790-3 0  9992
2 60242  61.9811 347.7920 0054549 101.9446 258.7771 15.09835809 84991
ROBUSTA-3A
1 60243U 24128J   26026.27285046  .00013916  00000+0  85403-3 0  9994
2 60243  61.9886 349.2139 0054808  99.4187 261.3109 15.09141663 84986
CatSat
1 60246U 24125J   26026.05048184  .00061461  00000+0  12955-2 0  9999
2 60246  97.2269 238.0660 0030929 348.9308  11.1256 15.44515639 85358
ARTIC WX
1 60543U 24149CD  26026.16767704  .00001927  00000+0  20629-3 0  9992
2 60543  97.6960 100.5962 0001736 180.8075 179.3141 14.89833131 78154
ARCTICSAT 1
1 61762U 24199AD  26026.27713105  .00084001  00000+0  11096-2 0  9990
2 61762  97.3177 263.2225 0008932  60.7204 299.4943 15.58039289115772
MORDOVIA-IOT
1 61765U 24199AG  26024.36610939  .00717812  21759-3  19780-2 0  9991
2 61765  97.2959 265.4607 0006261  74.1220 286.0745 15.93911090112610
HYPERVIEW-1G (RS66S)
1 61772U 24199AP  26026.28865422  .00064312  00000+0  10432-2 0  9998
2 61772  97.3158 261.4123 0011693  77.3258 282.9301 15.52467195112519
AO-123
1 61781U 24199AY  26026.26954535  .00016008  00000+0  50083-3 0  9996
2 61781  97.3216 256.2570 0016041  95.5782 264.7290 15.33082305112169
SAMSAT-IONOSPHERE
1 61784U 24199BB  26026.32479142  .00045241  00000+0  91894-3 0  9998
2 61784  97.3184 259.8967 0012994  82.4731 277.7994 15.46108951115569
CROCUBE
1 62394U 24247T   26026.15523032  .00045275  00000+0  11826-2 0  9992
2 62394  44.9756 334.0034 0001257  62.6030 297.4985 15.38136017 61400
HADES-R (SO-124)
1 62690U 25009CK  26026.18254824  .01001461  43203-3  32071-2 0  9992
2 62690  97.3706 116.2664 0007330 295.6648  64.3868 15.91046623 57752
HYDRA-T
1 62692U 25009CM  26026.03086108  .02487130  66941-2  34765-2 0  9993
2 62692  97.3651 116.6196 0008949 300.8435  59.1966 16.07520662 57767
JINJUSat 1B
1 63210U 25052A   26026.26499283  .00024847  00000+0  89736-3 0  9995
2 63210  97.4166 283.1923 0002110 201.4418 158.6733 15.28469328 48383
NUSHSAT 1
1 63211U 25052B   26025.70223290  .00030056  00000+0  10409-2 0  9996
2 63211  97.4154 282.8219 0001664 209.6620 150.4526 15.29801608 48318
TEVEL2-4
1 63213U 25052D   26025.46254450  .00030307  00000+0  10766-2 0  9998
2 63213  97.4074 282.0397 0000713 250.5902 109.5261 15.28970989 48265
TEVEL2-5
1 63214U 25052E   26026.25581019  .00027037  00000+0  96266-3 0  9997
2 63214  97.4072 282.8098 0000725 234.5116 125.6056 15.28919544 48386
TEVEL2-6
1 63215U 25052F   26026.26445448  .00026853  00000+0  95743-3 0  9998
2 63215  97.4074 282.8054 0000832 240.2031 119.9127 15.28875237 48385
TEVEL2-1
1 63217U 25052H   26026.25176332  .00026477  00000+0  95485-3 0  9997
2 63217  97.4050 282.5650 0000942 291.2905  68.8234 15.28503686 48374
TEVEL2-3
1 63218U 25052J   26026.18476457  .00026462  00000+0  95358-3 0  9994
2 63218  97.4050 282.5068 0000977 293.9040  66.2097 15.28529245 48362
TEVEL2-2
1 63219U 25052K   26025.66327612  .00027195  00000+0  98162-3 0  9995
2 63219  97.4018 281.9840 0001231 294.4613  65.6498 15.28469704 48286
TEVEL2-9
1 63237U 25052AD  26026.26053352  .00025264  00000+0  95617-3 0  9996
2 63237  97.4113 282.2143 0005033 295.6142  64.4577 15.26910561 48337
TEVEL2-7
1 63238U 25052AE  26025.16506699  .00025494  00000+0  97179-3 0  9992
2 63238  97.4117 281.0910 0005201 301.4925  58.5805 15.26669782 48168
TEVEL2-8
1 63239U 25052AF  26026.28567021  .00023388  00000+0  89118-3 0  9997
2 63239  97.4111 282.1864 0005082 297.5355  62.5367 15.26701601 48336
HYDRA-W
1 63490U 25052BL  26026.25639921  .00146156  00000+0  25725-2 0  9994
2 63490  97.4019 285.9197 0002952 283.9385  76.1537 15.49920442 48596
HADES-ICM (SO-125)
1 63492U 25052BN  26026.19292477  .00115364  00000+0  22787-2 0  9992
2 63492  97.4023 285.4231 0004019 290.6402  69.4416 15.46711915 48555
PARUS-T2
1 64574U 25135AY  26026.28311844  .00007054  00000+0  65884-3 0  9998
2 64574  97.7604 142.6025 0003148  89.8510 270.3071 14.94468944 32725
Dragonfly
1 65729U 98067XH  26025.66842735  .01261085  92481-3  17972-2 0  9993
2 65729  51.6136 266.9855 0007496 201.2231 158.8471 16.05047291 20125
RSP-03
1 65732U 98067XL  26025.67914595  .00451393  00000+0  16219-2 0  9999
2 65732  51.6206 270.1344 0005320 167.5616 192.5521 15.86998570 20092
BOTAN
1 65942U 98067XP  26025.80197135  .00276857  00000+0  16525-2 0  9990
2 65942  51.6217 274.7500 0005177 172.7994 187.3082 15.76521703 16782
CEVROSAT1
1 66309U 25248S   26026.07840643  .00008158  00000+0  39864-3 0  9997
2 66309  45.4034 162.7389 0003566 305.6165  54.4388 15.18747670 12896
SPIRONE
1 66657U 25274H   26026.05678193  .00004445  00000+0  43477-3 0  9999
2 66657  97.7410 317.5177 0013520 122.7666 237.4858 14.92769265  9010
K-HERO
1 66660U 25274L   26026.30462409  .00003743  00000+0  36235-3 0  9996
2 66660  97.7423 317.8130 0015429 126.3216 233.9430 14.93256724  9054
SNUGLITE-III DURI
1 66661U 25274M   26026.29928493  .00003862  00000+0  37259-3 0  9994
2 66661  97.7424 317.8178 0016089 127.4530 232.8157 14.93369383  9052
SilverSat
1 66909U 98067XV  26025.99909466  .00131885  00000+0  16023-2 0  9996
2 66909  51.6286 281.3397 0003479 136.3944 223.7324 15.59630122  8506
GALAPAGOS
1 67279U 25313AH  26026.24318906  .00011883  00000+0  54391-3 0  9999
2 67279  97.4076 103.2170 0015758 138.3140 221.9300 15.20548878  4364
Lobachevsky
1 67282U 25313AL  26026.22865336  .00010090  00000+0  45367-3 0  9997
2 67282  97.4080 103.2235 0012188 133.4992 226.7259 15.21251642  4367
SAKHACUBE-CHOLBON
1 67290U 25313AU  26026.15585380  .00018055  00000+0  79600-3 0  9992
2 67290  97.4085 103.1793 0010847 131.3782 228.8389 15.21798519  4358
QMR-KWT
1 67291U 25313AV  26026.28609212  .00021933  00000+0  96066-3 0  9992
2 67291  97.4086 103.3103 0010649 130.9426 229.2734 15.21983498  4370
Delfi-N3xt
1 39428U 13066N   26026.26456767  .00016115  00000-0  14732-2 0  9994
2 39428  97.8348 306.9317 0076799 319.8665  39.6897 14.92831428653437
GHS-01
1 65733U 98067XM  26020.92375749  .09795873  12158-4  14287-2 0  9993
2 65733  51.6117 289.2886 0004779 208.5099 151.5664 16.33783644 19418
IO-86
1 40931U          25360.30710720  .00000000  00000-0  12800-3 0    00
2 40931   6.0006 332.5373 0012733 338.8432   8.1437 14.79075515    01
PARUS-T1
1 98707U 25009N   25063.20000000  .00000000  00000-0  00000-0 0    08
2 98707  97.4430 144.9801 0003811 149.1702 136.3402 15.16239457    06
T.MicroSat-1
1 98515U 25276Y   25347.12519372 +.00009703 +00000+0 +47621-3 0 00218
2 98515  97.4377  58.8963 0002080  99.7173 260.4296 15.18293117002180
CORIOLIS
1 27640U 03001A   26026.48986184  .00000249  00000+0  13784-3 0  9997
2 27640  98.7151  35.5273 0012956 260.5527  99.4185 14.19894163194115
